STARLINK-37916          
1 69565U 26135V   26188.82614713  .00322456  00000+0  16239-2 0  9999
2 69565  97.2852 217.0805 0003547 134.8880 225.2676 15.80797450  3526
STARLINK-37909          
1 69566U 26135W   26189.64263964  .00131289  00000+0  67376-3 0  9990
2 69566  97.2874 217.9588 0000734 169.9740 190.1543 15.80885703  3653
STARLINK-37934          
1 69567U 26135X   26188.44312228  .00293381  00000+0  14681-2 0  9998
2 69567  97.2845 216.6838 0003261 125.2579 234.8995 15.81011723  3469
STARLINK-37938          
1 69568U 26135Y   26189.91668981 -.02460206  00000+0 -26205-1 0  9992
2 69568  97.2846 218.2272 0001300  68.0508 346.8535 15.67269764  4806
STARLINK-37924          
1 69569U 26135Z   26189.95798692 -.00834239  00000+0 -55095-2 0  9999
2 69569  97.2851 218.2963 0000661 130.1959 229.9366 15.77726867  3704
SHIJIAN-31 (SJ-31)      
1 69570U 26136A   26189.30358199  .00000228  00000+0  00000+0 0  9999
2 69570  63.4848 353.9045 6940433 171.8184 212.3218  1.92222292   493
CZ-3B R/B               
1 69571U 26136B   26189.13906256  .00337556 -28850-6  50089-3 0  9998
2 69571  63.4369 351.8959 7282905 171.4799 216.6680  2.34677450   515
GUOWANG OBJECT A        
1 69572U 26137A   26189.93769729 -.00000127  00000+0  15473-4 0  9990
2 69572  49.9992 168.8077 0012590 297.7523  62.2098 13.89812460  3048
GUOWANG OBJECT B        
1 69573U 26137B   26189.93480712 -.00000231  00000+0 -68965-4 0  9994
2 69573  50.0021 168.7914 0011859 296.5997  63.3686 13.89803750  3051
GUOWANG OBJECT C        
1 69574U 26137C   26189.93371331 -.00000033  00000+0  91438-4 0  9991
2 69574  49.9960 168.7715 0011903 298.1777  61.7919 13.89815274  3059
GUOWANG OBJECT D        
1 69575U 26137D   26189.64497025 -.00000168  00000+0 -18034-4 0  9990
2 69575  49.9953 169.9088 0011093 295.9405  64.0350 13.89827808  3018
GUOWANG OBJECT E        
1 69576U 26137E   26189.93160510 -.00000220  00000+0 -59670-4 0  9999
2 69576  50.0034 168.7824 0011239 300.0510  59.9273 13.89825211  3051
GUOWANG OBJECT F        
1 69577U 26137F   26189.93076910 -.00000220  00000+0 -59614-4 0  9998
2 69577  50.0027 168.7755 0010830 299.8700  60.1122 13.89809566  3051
GUOWANG OBJECT G        
1 69578U 26137G   26189.92989214 -.00000235  00000+0 -72080-4 0  9996
2 69578  49.9952 168.7509 0010832 299.4898  60.4919 13.89794429  3057
GUOWANG OBJECT H        
1 69579U 26137H   26189.85717361 -.00000192  00000+0 -37029-4 0  9997
2 69579  50.0010 169.0456 0010227 302.5930  57.3980 13.89776017  3047
GUOWANG OBJECT J        
1 69580U 26137J   26178.27848690  .00000022  00000+0  13174-3 0  9997
2 69580  49.9961 215.0979 0011832 257.3150 102.6427 13.91997107  1436
CZ-12 R/B               
1 69581U 26137K   26189.96181670  .00000038  00000+0  10218-3 0  9997
2 69581  49.9881 165.5353 0077463 188.3859 171.5759 14.11693337  3081
CENTISPACE-1 GROUP 05 O*
1 69582U 26138A   26189.46830963 -.00000238  00000+0 -43157-4 0  9993
2 69582  55.1385 202.5891 0010898 329.2434  30.7901 14.15470902  3038
CENTISPACE-1 GROUP 05 O*
1 69583U 26138B   26189.74801337 -.00000303  00000+0 -75681-4 0  9998
2 69583  55.1381 201.5301 0009895 330.1787  29.8622 14.15651316  3070
CENTISPACE-1 GROUP 05 O*
1 69584U 26138C   26189.74671567 -.00000323  00000+0 -86010-4 0  9999
2 69584  55.1387 201.5318 0009812 331.8520  28.1923 14.15735344  3077
CENTISPACE-1 GROUP 05 O*
1 69585U 26138D   26189.53228067 -.00000410  00000+0 -12963-3 0  9992
2 69585  55.1387 202.2919 0009366 330.4117  29.6326 14.15921737  3047
CENTISPACE-1 GROUP 05 O*
1 69586U 26138E   26189.74306377 -.00000391  00000+0 -11972-3 0  9994
2 69586  55.1380 201.5111 0009123 331.3196  28.7275 14.15988570  3079
CENTISPACE-1 GROUP 05 O*
1 69587U 26138F   26189.74405885 -.00000386  00000+0 -11761-3 0  9999
2 69587  55.1383 201.5178 0009023 335.5904  24.4642 14.15911614  3074
CENTISPACE-1 GROUP 05 O*
1 69588U 26138G   26189.52976346 -.00000440  00000+0 -14433-3 0  9991
2 69588  55.1383 202.2843 0008273 334.8054  25.2516 14.16075982  3042
SPACEMOBILE-008         
1 69589U 26139A   26189.41414475  .00000553  00000+0  48131-4 0  9997
2 69589  52.9938 166.1941 0004704  40.1803 319.9535 15.12795607  3195
SPACEMOBILE-009         
1 69590U 26139B   26189.34955796  .00000530  00000+0  46945-4 0  9993
2 69590  52.9928 166.4987 0004937  35.3944 324.7374 15.12688799  3186
SPACEMOBILE-010         
1 69591U 26139C   26189.41798456  .00000482  00000+0  44398-4 0  9996
2 69591  52.9933 166.2159 0004820  26.6938 333.4300 15.12519992  3206
KUIPER-00423            
1 69592U 26140A   26189.62213642  .00014047  00000+0  37263-3 0  9995
2 69592  51.8809 294.8872 0013510 245.0874 114.8710 15.38497497  4535
KUIPER-00428            
1 69593U 26140B   26189.65364923  .00010941  00000+0  30920-3 0  9990
2 69593  51.8799 295.0909 0007647  10.2928 349.8213 15.36838367  4535
KUIPER-00481            
1 69594U 26140C   26189.63076229  .00014208  00000+0  38489-3 0  9996
2 69594  51.8778 294.9384 0010977 252.6980 107.2807 15.37867434  4531
