OBJECT_NAME,OBJECT_ID,EPOCH,MEAN_MOTION,ECCENTRICITY,INCLINATION,RA_OF_ASC_NODE,ARG_OF_PERICENTER,MEAN_ANOMALY,EPHEMERIS_TYPE,CLASSIFICATION_TYPE,NORAD_CAT_ID,ELEMENT_SET_NO,REV_AT_EPOCH,BSTAR,MEAN_MOTION_DOT,MEAN_MOTION_DDOT
STARLINK-37916,2026-135V,2026-07-07T19:49:39.112032,15.80797450,.00035477,97.2852,217.0805,134.8880,225.2676,0,U,69565,999,352,.16238889E-2,.322456E-2,0
STARLINK-37909,2026-135W,2026-07-08T15:25:24.064896,15.80885703,.00007342,97.2874,217.9588,169.9740,190.1543,0,U,69566,999,365,.67375702E-3,.131289E-2,0
STARLINK-37934,2026-135X,2026-07-07T10:38:05.764992,15.81011723,.00032614,97.2845,216.6838,125.2579,234.8995,0,U,69567,999,346,.14681327E-2,.293381E-2,0
STARLINK-37938,2026-135Y,2026-07-08T22:00:01.999584,15.67269764,.00013005,97.2846,218.2272,68.0508,346.8535,0,U,69568,999,480,-.26204501E-1,-.2460206E-1,0
STARLINK-37924,2026-135Z,2026-07-08T22:59:30.069888,15.77726867,.00006616,97.2851,218.2963,130.1959,229.9366,0,U,69569,999,370,-.55094839E-2,-.834239E-2,0
SHIJIAN-31 (SJ-31),2026-136A,2026-07-08T07:17:09.483936,1.92222292,.69404339,63.4848,353.9045,171.8184,212.3218,0,U,69570,999,49,0,.228E-5,0
CZ-3B R/B,2026-136B,2026-07-08T03:20:15.005184,2.34677450,.72829054,63.4369,351.8959,171.4799,216.6680,0,U,69571,999,51,.50088612E-3,.337556E-2,-.288501E-6
GUOWANG OBJECT A,2026-137A,2026-07-08T22:30:17.045856,13.89812460,.00125902,49.9992,168.8077,297.7523,62.2098,0,U,69572,999,304,.15472669E-4,-.127E-5,0
GUOWANG OBJECT B,2026-137B,2026-07-08T22:26:07.335168,13.89803750,.00118599,50.0021,168.7914,296.5997,63.3686,0,U,69573,999,305,-.68965044E-4,-.231E-5,0
GUOWANG OBJECT C,2026-137C,2026-07-08T22:24:32.829984,13.89815274,.00119039,49.9960,168.7715,298.1777,61.7919,0,U,69574,999,305,.91438355E-4,-.33E-6,0
GUOWANG OBJECT D,2026-137D,2026-07-08T15:28:45.429600,13.89827808,.00110933,49.9953,169.9088,295.9405,64.0350,0,U,69575,999,301,-.18033632E-4,-.168E-5,0
GUOWANG OBJECT E,2026-137E,2026-07-08T22:21:30.680640,13.89825211,.00112394,50.0034,168.7824,300.0510,59.9273,0,U,69576,999,305,-.5966968E-4,-.22E-5,0
GUOWANG OBJECT F,2026-137F,2026-07-08T22:20:18.450240,13.89809566,.001083,50.0027,168.7755,299.8700,60.1122,0,U,69577,999,305,-.59613673E-4,-.22E-5,0
GUOWANG OBJECT G,2026-137G,2026-07-08T22:19:02.680896,13.89794429,.00108323,49.9952,168.7509,299.4898,60.4919,0,U,69578,999,305,-.72080002E-4,-.235E-5,0
GUOWANG OBJECT H,2026-137H,2026-07-08T20:34:19.799904,13.89776017,.0010227,50.0010,169.0456,302.5930,57.3980,0,U,69579,999,304,-.37028954E-4,-.192E-5,0
GUOWANG OBJECT J,2026-137J,2026-06-27T06:41:01.268160,13.91997107,.0011832,49.9961,215.0979,257.3150,102.6427,0,U,69580,999,143,.13174E-3,.22E-6,0
CZ-12 R/B,2026-137K,2026-07-08T23:05:00.962880,14.11693337,.00774635,49.9881,165.5353,188.3859,171.5759,0,U,69581,999,308,.10217713E-3,.38E-6,0
CENTISPACE-1 GROUP 05 OBJECT A,2026-138A,2026-07-08T11:14:21.952032,14.15470902,.00108981,55.1385,202.5891,329.2434,30.7901,0,U,69582,999,303,-.43157486E-4,-.238E-5,0
CENTISPACE-1 GROUP 05 OBJECT B,2026-138B,2026-07-08T17:57:08.355168,14.15651316,.00098955,55.1381,201.5301,330.1787,29.8622,0,U,69583,999,307,-.75680763E-4,-.303E-5,0
CENTISPACE-1 GROUP 05 OBJECT C,2026-138C,2026-07-08T17:55:16.233888,14.15735344,.00098123,55.1387,201.5318,331.8520,28.1923,0,U,69584,999,307,-.86010316E-4,-.323E-5,0
CENTISPACE-1 GROUP 05 OBJECT D,2026-138D,2026-07-08T12:46:29.049888,14.15921737,.00093666,55.1387,202.2919,330.4117,29.6326,0,U,69585,999,304,-.12962791E-3,-.41E-5,0
CENTISPACE-1 GROUP 05 OBJECT E,2026-138E,2026-07-08T17:50:00.709728,14.15988570,.0009123,55.1380,201.5111,331.3196,28.7275,0,U,69586,999,307,-.11971673E-3,-.391E-5,0
CENTISPACE-1 GROUP 05 OBJECT F,2026-138F,2026-07-08T17:51:26.684640,14.15911614,.00090234,55.1383,201.5178,335.5904,24.4642,0,U,69587,999,307,-.11760976E-3,-.386E-5,0
CENTISPACE-1 GROUP 05 OBJECT G,2026-138G,2026-07-08T12:42:51.562944,14.16075982,.00082734,55.1383,202.2843,334.8054,25.2516,0,U,69588,999,304,-.14433311E-3,-.44E-5,0
SPACEMOBILE-008,2026-139A,2026-07-08T09:56:22.106400,15.12795607,.00047044,52.9938,166.1941,40.1803,319.9535,0,U,69589,999,319,.48130817E-4,.553E-5,0
SPACEMOBILE-009,2026-139B,2026-07-08T08:23:21.807744,15.12688799,.00049379,52.9928,166.4987,35.3944,324.7374,0,U,69590,999,318,.46944963E-4,.53E-5,0
SPACEMOBILE-010,2026-139C,2026-07-08T10:01:53.865984,15.12519992,.000482,52.9933,166.2159,26.6938,333.4300,0,U,69591,999,320,.44398179E-4,.482E-5,0
KUIPER-00423,2026-140A,2026-07-08T14:55:52.586688,15.38497497,.00135105,51.8809,294.8872,245.0874,114.8710,0,U,69592,999,453,.3726333E-3,.14047E-3,0
KUIPER-00428,2026-140B,2026-07-08T15:41:15.293472,15.36838367,.00076476,51.8799,295.0909,10.2928,349.8213,0,U,69593,999,453,.30919861E-3,.10941E-3,0
KUIPER-00481,2026-140C,2026-07-08T15:08:17.861856,15.37867434,.00109778,51.8778,294.9384,252.6980,107.2807,0,U,69594,999,453,.3848851E-3,.14208E-3,0
